CCSDS_OMM_VERS = 2.0
CREATION_DATE  = 
ORIGINATOR     = 

OBJECT_NAME    = SDA-1664
OBJECT_ID      = 2025-230A
CENTER_NAME    = EARTH
REF_FRAME      = TEME
TIME_SYSTEM    = UTC
MEAN_ELEMENT_THEORY = SGP/SGP4

EPOCH          = 2025-10-30T17:55:02.395200
MEAN_MOTION    = 13.84696008
ECCENTRICITY   = .0003512
INCLINATION    = 81.2983
RA_OF_ASC_NODE = 64.4808
ARG_OF_PERICENTER = 72.5821
MEAN_ANOMALY   = 287.5720

EPHEMERIS_TYPE = 0
CLASSIFICATION_TYPE = U
NORAD_CAT_ID   = 65974
ELEMENT_SET_NO = 999
REV_AT_EPOCH   = 205
BSTAR          = .25457E-3
MEAN_MOTION_DOT = .298E-5
MEAN_MOTION_DDOT = 0

CCSDS_OMM_VERS = 2.0
CREATION_DATE  = 
ORIGINATOR     = 

OBJECT_NAME    = SDA-1665
OBJECT_ID      = 2025-230B
CENTER_NAME    = EARTH
REF_FRAME      = TEME
TIME_SYSTEM    = UTC
MEAN_ELEMENT_THEORY = SGP/SGP4

EPOCH          = 2025-10-30T19:27:52.224768
MEAN_MOTION    = 13.85426230
ECCENTRICITY   = .0004961
INCLINATION    = 81.3022
RA_OF_ASC_NODE = 64.4123
ARG_OF_PERICENTER = 115.3553
MEAN_ANOMALY   = 244.8119

EPHEMERIS_TYPE = 0
CLASSIFICATION_TYPE = U
NORAD_CAT_ID   = 65975
ELEMENT_SET_NO = 999
REV_AT_EPOCH   = 206
BSTAR          = .28302E-3
MEAN_MOTION_DOT = .334E-5
MEAN_MOTION_DDOT = 0

CCSDS_OMM_VERS = 2.0
CREATION_DATE  = 
ORIGINATOR     = 

OBJECT_NAME    = SDA-1666
OBJECT_ID      = 2025-230C
CENTER_NAME    = EARTH
REF_FRAME      = TEME
TIME_SYSTEM    = UTC
MEAN_ELEMENT_THEORY = SGP/SGP4

EPOCH          = 2025-10-30T16:12:04.561056
MEAN_MOTION    = 13.84624610
ECCENTRICITY   = .0003173
INCLINATION    = 81.2992
RA_OF_ASC_NODE = 64.5505
ARG_OF_PERICENTER = 69.8153
MEAN_ANOMALY   = 290.3345

EPHEMERIS_TYPE = 0
CLASSIFICATION_TYPE = U
NORAD_CAT_ID   = 65976
ELEMENT_SET_NO = 999
REV_AT_EPOCH   = 204
BSTAR          = .28419E-3
MEAN_MOTION_DOT = .331E-5
MEAN_MOTION_DDOT = 0

CCSDS_OMM_VERS = 2.0
CREATION_DATE  = 
ORIGINATOR     = 

OBJECT_NAME    = SDA-1667
OBJECT_ID      = 2025-230D
CENTER_NAME    = EARTH
REF_FRAME      = TEME
TIME_SYSTEM    = UTC
MEAN_ELEMENT_THEORY = SGP/SGP4

EPOCH          = 2025-10-30T16:08:15.131040
MEAN_MOTION    = 13.84875720
ECCENTRICITY   = .000401
INCLINATION    = 81.2989
RA_OF_ASC_NODE = 64.5461
ARG_OF_PERICENTER = 83.2985
MEAN_ANOMALY   = 276.8629

EPHEMERIS_TYPE = 0
CLASSIFICATION_TYPE = U
NORAD_CAT_ID   = 65977
ELEMENT_SET_NO = 999
REV_AT_EPOCH   = 204
BSTAR          = .28216E-3
MEAN_MOTION_DOT = .33E-5
MEAN_MOTION_DDOT = 0

CCSDS_OMM_VERS = 2.0
CREATION_DATE  = 
ORIGINATOR     = 

OBJECT_NAME    = SDA-1668
OBJECT_ID      = 2025-230E
CENTER_NAME    = EARTH
REF_FRAME      = TEME
TIME_SYSTEM    = UTC
MEAN_ELEMENT_THEORY = SGP/SGP4

EPOCH          = 2025-10-30T17:43:14.456064
MEAN_MOTION    = 13.85466865
ECCENTRICITY   = .0004943
INCLINATION    = 81.3005
RA_OF_ASC_NODE = 64.4715
ARG_OF_PERICENTER = 118.2583
MEAN_ANOMALY   = 241.9074

EPHEMERIS_TYPE = 0
CLASSIFICATION_TYPE = U
NORAD_CAT_ID   = 65978
ELEMENT_SET_NO = 999
REV_AT_EPOCH   = 205
BSTAR          = .22713E-3
MEAN_MOTION_DOT = .271E-5
MEAN_MOTION_DDOT = 0

CCSDS_OMM_VERS = 2.0
CREATION_DATE  = 
ORIGINATOR     = 

OBJECT_NAME    = SDA-1669
OBJECT_ID      = 2025-230F
CENTER_NAME    = EARTH
REF_FRAME      = TEME
TIME_SYSTEM    = UTC
MEAN_ELEMENT_THEORY = SGP/SGP4

EPOCH          = 2025-10-30T17:46:47.963424
MEAN_MOTION    = 13.85234292
ECCENTRICITY   = .0005089
INCLINATION    = 81.3007
RA_OF_ASC_NODE = 64.4754
ARG_OF_PERICENTER = 105.6886
MEAN_ANOMALY   = 254.4833

EPHEMERIS_TYPE = 0
CLASSIFICATION_TYPE = U
NORAD_CAT_ID   = 65979
ELEMENT_SET_NO = 999
REV_AT_EPOCH   = 205
BSTAR          = .23115E-3
MEAN_MOTION_DOT = .274E-5
MEAN_MOTION_DDOT = 0

CCSDS_OMM_VERS = 2.0
CREATION_DATE  = 
ORIGINATOR     = 

OBJECT_NAME    = SDA-1670
OBJECT_ID      = 2025-230G
CENTER_NAME    = EARTH
REF_FRAME      = TEME
TIME_SYSTEM    = UTC
MEAN_ELEMENT_THEORY = SGP/SGP4

EPOCH          = 2025-10-30T16:09:14.199264
MEAN_MOTION    = 13.84810907
ECCENTRICITY   = .0003758
INCLINATION    = 81.2984
RA_OF_ASC_NODE = 64.5461
ARG_OF_PERICENTER = 80.1516
MEAN_ANOMALY   = 280.0065

EPHEMERIS_TYPE = 0
CLASSIFICATION_TYPE = U
NORAD_CAT_ID   = 65980
ELEMENT_SET_NO = 999
REV_AT_EPOCH   = 204
BSTAR          = .28769E-3
MEAN_MOTION_DOT = .336E-5
MEAN_MOTION_DDOT = 0

CCSDS_OMM_VERS = 2.0
CREATION_DATE  = 
ORIGINATOR     = 

OBJECT_NAME    = SDA-1671
OBJECT_ID      = 2025-230H
CENTER_NAME    = EARTH
REF_FRAME      = TEME
TIME_SYSTEM    = UTC
MEAN_ELEMENT_THEORY = SGP/SGP4

EPOCH          = 2025-10-30T19:28:51.112416
MEAN_MOTION    = 13.85361506
ECCENTRICITY   = .0005029
INCLINATION    = 81.3012
RA_OF_ASC_NODE = 64.4068
ARG_OF_PERICENTER = 112.3878
MEAN_ANOMALY   = 247.7813

EPHEMERIS_TYPE = 0
CLASSIFICATION_TYPE = U
NORAD_CAT_ID   = 65981
ELEMENT_SET_NO = 999
REV_AT_EPOCH   = 206
BSTAR          = .26137E-3
MEAN_MOTION_DOT = .309E-5
MEAN_MOTION_DDOT = 0

CCSDS_OMM_VERS = 2.0
CREATION_DATE  = 
ORIGINATOR     = 

OBJECT_NAME    = SDA-1672
OBJECT_ID      = 2025-230J
CENTER_NAME    = EARTH
REF_FRAME      = TEME
TIME_SYSTEM    = UTC
MEAN_ELEMENT_THEORY = SGP/SGP4

EPOCH          = 2025-10-30T17:51:05.461344
MEAN_MOTION    = 13.84954258
ECCENTRICITY   = .0004377
INCLINATION    = 81.3019
RA_OF_ASC_NODE = 64.4822
ARG_OF_PERICENTER = 85.5819
MEAN_ANOMALY   = 274.5838

EPHEMERIS_TYPE = 0
CLASSIFICATION_TYPE = U
NORAD_CAT_ID   = 65982
ELEMENT_SET_NO = 999
REV_AT_EPOCH   = 205
BSTAR          = .27622E-3
MEAN_MOTION_DOT = .324E-5
MEAN_MOTION_DDOT = 0

CCSDS_OMM_VERS = 2.0
CREATION_DATE  = 
ORIGINATOR     = 

OBJECT_NAME    = SDA-1673
OBJECT_ID      = 2025-230K
CENTER_NAME    = EARTH
REF_FRAME      = TEME
TIME_SYSTEM    = UTC
MEAN_ELEMENT_THEORY = SGP/SGP4

EPOCH          = 2025-10-30T17:41:55.343904
MEAN_MOTION    = 13.85553549
ECCENTRICITY   = .0005059
INCLINATION    = 81.3018
RA_OF_ASC_NODE = 64.4752
ARG_OF_PERICENTER = 122.7034
MEAN_ANOMALY   = 237.4612

EPHEMERIS_TYPE = 0
CLASSIFICATION_TYPE = U
NORAD_CAT_ID   = 65983
ELEMENT_SET_NO = 999
REV_AT_EPOCH   = 205
BSTAR          = .28316E-3
MEAN_MOTION_DOT = .335E-5
MEAN_MOTION_DDOT = 0

CCSDS_OMM_VERS = 2.0
CREATION_DATE  = 
ORIGINATOR     = 

OBJECT_NAME    = SDA-1674
OBJECT_ID      = 2025-230L
CENTER_NAME    = EARTH
REF_FRAME      = TEME
TIME_SYSTEM    = UTC
MEAN_ELEMENT_THEORY = SGP/SGP4

EPOCH          = 2025-10-30T17:44:20.311008
MEAN_MOTION    = 13.85394936
ECCENTRICITY   = .0004972
INCLINATION    = 81.3010
RA_OF_ASC_NODE = 64.4729
ARG_OF_PERICENTER = 114.1218
MEAN_ANOMALY   = 246.0459

EPHEMERIS_TYPE = 0
CLASSIFICATION_TYPE = U
NORAD_CAT_ID   = 65984
ELEMENT_SET_NO = 999
REV_AT_EPOCH   = 205
BSTAR          = .23415E-3
MEAN_MOTION_DOT = .278E-5
MEAN_MOTION_DDOT = 0

CCSDS_OMM_VERS = 2.0
CREATION_DATE  = 
ORIGINATOR     = 

OBJECT_NAME    = SDA-1675
OBJECT_ID      = 2025-230M
CENTER_NAME    = EARTH
REF_FRAME      = TEME
TIME_SYSTEM    = UTC
MEAN_ELEMENT_THEORY = SGP/SGP4

EPOCH          = 2025-10-30T07:30:18.905184
MEAN_MOTION    = 13.84724369
ECCENTRICITY   = .00036012
INCLINATION    = 81.2984
RA_OF_ASC_NODE = 64.8825
ARG_OF_PERICENTER = 75.3250
MEAN_ANOMALY   = 284.8306

EPHEMERIS_TYPE = 0
CLASSIFICATION_TYPE = U
NORAD_CAT_ID   = 65985
ELEMENT_SET_NO = 999
REV_AT_EPOCH   = 199
BSTAR          = .24928757E-3
MEAN_MOTION_DOT = .292E-5
MEAN_MOTION_DDOT = 0

