SDA-1664                
1 65974U 25230A   25303.74655550  .00000298  00000+0  25457-3 0  9997
2 65974  81.2983  64.4808 0003512  72.5821 287.5720 13.84696008  2053
SDA-1665                
1 65975U 25230B   25303.81102112  .00000334  00000+0  28302-3 0  9990
2 65975  81.3022  64.4123 0004961 115.3553 244.8119 13.85426230  2064
SDA-1666                
1 65976U 25230C   25303.67505279  .00000331  00000+0  28419-3 0  9992
2 65976  81.2992  64.5505 0003173  69.8153 290.3345 13.84624610  2044
SDA-1667                
1 65977U 25230D   25303.67239735  .00000330  00000+0  28216-3 0  9998
2 65977  81.2989  64.5461 0004010  83.2985 276.8629 13.84875720  2040
SDA-1668                
1 65978U 25230E   25303.73836176  .00000271  00000+0  22713-3 0  9998
2 65978  81.3005  64.4715 0004943 118.2583 241.9074 13.85466865  2055
SDA-1669                
1 65979U 25230F   25303.74083291  .00000274  00000+0  23115-3 0  9992
2 65979  81.3007  64.4754 0005089 105.6886 254.4833 13.85234292  2058
SDA-1670                
1 65980U 25230G   25303.67308101  .00000336  00000+0  28769-3 0  9995
2 65980  81.2984  64.5461 0003758  80.1516 280.0065 13.84810907  2040
SDA-1671                
1 65981U 25230H   25303.81170269  .00000309  00000+0  26137-3 0  9991
2 65981  81.3012  64.4068 0005029 112.3878 247.7813 13.85361506  2068
SDA-1672                
1 65982U 25230J   25303.74381321  .00000324  00000+0  27622-3 0  9994
2 65982  81.3019  64.4822 0004377  85.5819 274.5838 13.84954258  2050
SDA-1673                
1 65983U 25230K   25303.73744611  .00000335  00000+0  28316-3 0  9992
2 65983  81.3018  64.4752 0005059 122.7034 237.4612 13.85553549  2050
SDA-1674                
1 65984U 25230L   25303.73912397  .00000278  00000+0  23415-3 0  9992
2 65984  81.3010  64.4729 0004972 114.1218 246.0459 13.85394936  2057
SDA-1675                
1 65985U 25230M   25303.31271881  .00000292  00000+0  24929-3 0  9990
2 65985  81.2984  64.8825 0003601  75.3250 284.8306 13.84724369  1999
